OBJECT_NAME,OBJECT_ID,EPOCH,MEAN_MOTION,ECCENTRICITY,INCLINATION,RA_OF_ASC_NODE,ARG_OF_PERICENTER,MEAN_ANOMALY,EPHEMERIS_TYPE,CLASSIFICATION_TYPE,NORAD_CAT_ID,ELEMENT_SET_NO,REV_AT_EPOCH,BSTAR,MEAN_MOTION_DOT,MEAN_MOTION_DDOT
DONGPO 01,2022-098K,2026-05-20T04:29:23.280864,15.67625386,.0000852,97.5555,269.6654,160.7885,199.3407,0,U,53453,999,21036,.55287E-3,.60417E-3,0
STARLINK-4400,2022-099D,2026-05-19T20:48:41.372064,15.05650239,.00007049,97.4686,260.0152,157.9762,202.1495,0,U,53468,999,20668,.39799379E-4,.515E-5,0
STARLINK-4621,2022-105AE,2026-05-20T04:51:11.094336,15.05649914,.0002227,97.4703,20.3497,81.6187,278.5292,0,U,53676,999,20399,.20797E-4,.241E-5,0
SHERPA-LTC2,2022-107BG,2026-05-19T19:48:24.098688,14.69250953,.03973015,53.2342,340.3655,146.7319,215.9321,0,U,53754,999,19837,.27048669E-3,.5262E-4,0
CENTISPACE-1 S3,2022-108A,2026-05-20T03:55:14.946816,14.61223144,.0008189,53.5314,171.1370,270.2070,89.7967,0,U,53757,999,19743,.4699E-4,.44E-6,0
CENTISPACE-1 S4,2022-108B,2026-05-20T03:51:19.576800,14.61896756,.0007808,53.5288,168.7982,255.7535,104.2573,0,U,53758,999,19746,.55931E-4,.92E-6,0
BLUEWALKER-3,2022-111AL,2026-05-19T18:48:20.473920,15.37884261,.0007438,53.2272,167.2789,86.0043,274.1812,0,U,53807,999,20583,.8242107E-4,.2722E-4,0
YUNHAI-1 03,2022-115A,2026-05-20T04:22:44.208768,14.32697353,.0005783,98.5534,138.6863,121.4192,238.7558,0,U,53877,999,19150,.10265E-3,.236E-5,0
CENTISPACE-1 S5,2022-126A,2026-05-20T04:58:37.784064,14.62957050,.0012981,54.9996,324.9220,18.2992,341.8467,0,U,54020,999,19294,.1233E-3,.447E-5,0
CENTISPACE-1 S6,2022-126B,2026-05-20T04:29:00.591360,14.62245466,.001483,55.0000,326.7407,17.2378,342.9117,0,U,54021,999,19290,.99334E-4,.316E-5,0
OTB-3-GAZELLE,2022-127A,2026-05-19T23:17:29.776128,14.42663047,.0011826,98.3941,132.1062,274.5082,85.4757,0,U,54023,999,19029,.35625E-4,.75E-6,0
ASO-S,2022-129A,2026-05-20T04:59:34.955808,14.52046101,.0014414,98.2752,145.6894,173.4374,186.7012,0,U,54029,999,19136,.40334E-4,.119E-5,0
HJ-2E,2022-132A,2026-05-20T05:07:15.007296,15.21846823,.0022648,97.3804,145.1045,106.4224,253.9504,0,U,54035,999,20016,.24454E-3,.5527E-4,0
COSMOS 2561,2022-137A,2026-05-20T04:00:49.950720,15.50925941,.0011718,96.9203,200.2267,124.1950,236.0416,0,U,54109,999,20200,.17627E-3,.10146E-3,0
GONETS-M 23,2022-139A,2026-05-20T04:03:51.178176,12.42889581,.00206,82.5091,5.7084,284.1141,75.7650,0,U,54150,999,16216,.20021E-3,.37E-6,0
GONETS-M 24,2022-139B,2026-05-20T03:25:08.728032,12.42890214,.0015928,82.5007,4.8041,295.6056,64.3377,0,U,54151,999,16216,.2627E-3,.46E-6,0
GONETS-M 25,2022-139C,2026-05-20T03:05:29.711904,12.42889258,.0019828,82.5072,5.4838,293.5495,66.3502,0,U,54152,999,16216,.10199E-3,.24E-6,0
SKIF-D,2022-139D,2026-05-19T11:27:00.358272,5.00437151,.00074218,89.9550,96.6762,212.2337,147.7544,0,U,54153,999,6267,0,.23E-6,0
MATS,2022-147A,2026-05-19T22:18:56.943936,15.05163133,.001063,97.6833,141.6543,300.6531,59.3647,0,U,54227,999,19351,.1468E-3,.2031E-4,0
JILIN-1 GAOFEN 03D54,2022-155D,2026-05-20T05:16:54.561216,15.84716206,.0001259,97.6117,289.9303,176.8843,183.2434,0,U,54254,999,19585,.61762E-3,.144071E-2,0
EOS-6 (OCEANSAT-3),2022-158A,2026-05-20T05:26:04.504992,14.47022413,.0002123,98.3519,238.7941,78.2874,281.8556,0,U,54361,999,18379,.58261E-4,.168E-5,0
DONGPO 09,2022-167D,2026-05-20T04:50:24.018432,15.35651136,.000208,97.6885,309.9777,188.0695,172.0515,0,U,54685,999,19115,.23903E-3,.82E-4,0
DONGPO 08,2022-167E,2026-05-20T04:46:34.369824,15.33037544,.0006822,97.6847,307.2841,263.6875,96.3589,0,U,54686,999,19103,.23708E-3,.7487E-4,0
2022-167F,2022-167F,2026-05-20T05:11:37.619232,15.82509537,.0003053,97.6158,324.9004,164.3092,195.8272,0,U,54687,999,19239,.56347E-3,.118158E-2,0
DONGPO 10,2022-167H,2026-05-20T05:17:06.950112,15.33823356,.0004738,97.6931,309.1917,197.3049,162.8032,0,U,54689,999,19107,.23541E-3,.7618E-4,0
JILIN-1 GAOFEN 03D48,2022-167P,2026-05-20T03:59:37.975200,15.34560425,.0006005,97.6864,308.5050,205.0293,155.0659,0,U,54695,999,19109,.24602E-3,.8157E-4,0
STAR VIBE,2023-001A,2026-05-20T03:21:38.674080,15.41774043,.0005356,97.3181,204.5059,197.8442,162.2618,0,U,55009,999,18790,.25863E-3,.10863E-3,0
BRO-8,2023-001C,2026-05-20T04:33:19.247040,15.47222223,.0005716,97.3223,205.0069,204.6835,155.4143,0,U,55011,999,18787,.44762E-3,.22727E-3,0
CONNECTA T1.2,2023-001D,2026-05-20T03:29:39.983424,15.48518912,.000656,97.3284,210.3817,181.8381,178.2847,0,U,55012,999,18820,.55535E-3,.29549E-3,0
BIRKELAND,2023-001G,2026-05-20T01:44:39.334272,15.39534318,.0006529,97.3352,207.9803,191.1279,168.9823,0,U,55015,999,18802,.2034E-3,.7914E-4,0
