DONGPO 01               
1 53453U 22098K   26140.18707501  .00060417  00000+0  55287-3 0  9990
2 53453  97.5555 269.6654 0000852 160.7885 199.3407 15.67625386210360
STARLINK-4400           
1 53468U 22099D   26139.86714551  .00000515  00000+0  39799-4 0  9997
2 53468  97.4686 260.0152 0000704 157.9762 202.1495 15.05650239206683
STARLINK-4621           
1 53676U 22105AE  26140.20221174  .00000241  00000+0  20797-4 0  9994
2 53676  97.4703  20.3497 0002227  81.6187 278.5292 15.05649914203990
SHERPA-LTC2             
1 53754U 22107BG  26139.82527892  .00005262  00000+0  27049-3 0  9999
2 53754  53.2342 340.3655 0397301 146.7319 215.9321 14.69250953198370
CENTISPACE-1 S3         
1 53757U 22108A   26140.16336744  .00000044  00000+0  46990-4 0  9996
2 53757  53.5314 171.1370 0008189 270.2070  89.7967 14.61223144197432
CENTISPACE-1 S4         
1 53758U 22108B   26140.16064325  .00000092  00000+0  55931-4 0  9998
2 53758  53.5288 168.7982 0007808 255.7535 104.2573 14.61896756197469
BLUEWALKER-3            
1 53807U 22111AL  26139.78357030  .00002722  00000+0  82421-4 0  9997
2 53807  53.2272 167.2789 0007438  86.0043 274.1812 15.37884261205837
YUNHAI-1 03             
1 53877U 22115A   26140.18245612  .00000236  00000+0  10265-3 0  9990
2 53877  98.5534 138.6863 0005783 121.4192 238.7558 14.32697353191501
CENTISPACE-1 S5         
1 54020U 22126A   26140.20738176  .00000447  00000+0  12330-3 0  9997
2 54020  54.9996 324.9220 0012981  18.2992 341.8467 14.62957050192946
CENTISPACE-1 S6         
1 54021U 22126B   26140.18681240  .00000316  00000+0  99334-4 0  9999
2 54021  55.0000 326.7407 0014830  17.2378 342.9117 14.62245466192905
OTB-3-GAZELLE           
1 54023U 22127A   26139.97048352  .00000075  00000+0  35625-4 0  9993
2 54023  98.3941 132.1062 0011826 274.5082  85.4757 14.42663047190295
ASO-S                   
1 54029U 22129A   26140.20804347  .00000119  00000+0  40334-4 0  9995
2 54029  98.2752 145.6894 0014414 173.4374 186.7012 14.52046101191364
HJ-2E                   
1 54035U 22132A   26140.21336814  .00005527  00000+0  24454-3 0  9998
2 54035  97.3804 145.1045 0022648 106.4224 253.9504 15.21846823200168
COSMOS 2561             
1 54109U 22137A   26140.16724480  .00010146  00000+0  17627-3 0  9996
2 54109  96.9203 200.2267 0011718 124.1950 236.0416 15.50925941202006
GONETS-M 23             
1 54150U 22139A   26140.16934234  .00000037  00000+0  20021-3 0  9994
2 54150  82.5091   5.7084 0020600 284.1141  75.7650 12.42889581162169
GONETS-M 24             
1 54151U 22139B   26140.14246213  .00000046  00000+0  26270-3 0  9998
2 54151  82.5007   4.8041 0015928 295.6056  64.3377 12.42890214162164
GONETS-M 25             
1 54152U 22139C   26140.12881611  .00000024  00000+0  10199-3 0  9993
2 54152  82.5072   5.4838 0019828 293.5495  66.3502 12.42889258162163
SKIF-D                  
1 54153U 22139D   26139.47708748  .00000023  00000+0  00000+0 0  9994
2 54153  89.9550  96.6762 0007421 212.2337 147.7544  5.00437151 62675
MATS                    
1 54227U 22147A   26139.92982574  .00002031  00000+0  14680-3 0  9990
2 54227  97.6833 141.6543 0010630 300.6531  59.3647 15.05163133193511
JILIN-1 GAOFEN 03D54    
1 54254U 22155D   26140.22007594  .00144071  00000+0  61762-3 0  9998
2 54254  97.6117 289.9303 0001259 176.8843 183.2434 15.84716206195854
EOS-6 (OCEANSAT-3)      
1 54361U 22158A   26140.22644103  .00000168  00000+0  58261-4 0  9992
2 54361  98.3519 238.7941 0002123  78.2874 281.8556 14.47022413183795
DONGPO 09               
1 54685U 22167D   26140.20166688  .00008200  00000+0  23903-3 0  9995
2 54685  97.6885 309.9777 0002080 188.0695 172.0515 15.35651136191156
DONGPO 08               
1 54686U 22167E   26140.19900891  .00007487  00000+0  23708-3 0  9995
2 54686  97.6847 307.2841 0006822 263.6875  96.3589 15.33037544191031
2022-167F               
1 54687U 22167F   26140.21640763  .00118158  00000+0  56347-3 0  9991
2 54687  97.6158 324.9004 0003053 164.3092 195.8272 15.82509537192399
DONGPO 10               
1 54689U 22167H   26140.22021933  .00007618  00000+0  23541-3 0  9994
2 54689  97.6931 309.1917 0004738 197.3049 162.8032 15.33823356191073
JILIN-1 GAOFEN 03D48    
1 54695U 22167P   26140.16641175  .00008157  00000+0  24602-3 0  9998
2 54695  97.6864 308.5050 0006005 205.0293 155.0659 15.34560425191090
STAR VIBE               
1 55009U 23001A   26140.14003095  .00010863  00000+0  25863-3 0  9994
2 55009  97.3181 204.5059 0005356 197.8442 162.2618 15.41774043187906
BRO-8                   
1 55011U 23001C   26140.18980610  .00022727  00000+0  44762-3 0  9999
2 55011  97.3223 205.0069 0005716 204.6835 155.4143 15.47222223187873
CONNECTA T1.2           
1 55012U 23001D   26140.14560166  .00029549  00000+0  55535-3 0  9995
2 55012  97.3284 210.3817 0006560 181.8381 178.2847 15.48518912188207
BIRKELAND               
1 55015U 23001G   26140.07267748  .00007914  00000+0  20340-3 0  9998
2 55015  97.3352 207.9803 0006529 191.1279 168.9823 15.39534318188026
